IRIDIUM 159             
1 43578U 18061K   24339.59294486  .00000052  00000+0  11674-4 0  9990
2 43578  86.3947 290.5414 0002202  88.8315 271.3133 14.34216315333177
IRIDIUM 180             
1 43922U 19002A   24339.45290159  .00000727  00000+0  25256-3 0  9996
2 43922  86.3996 227.4672 0002145  82.3359 277.8081 14.34219680308760
IRIDIUM 176             
1 43923U 19002B   24339.58081696  .00002420  00000+0  37970-3 0  9993
2 43923  86.6117 227.4220 0002995  83.1887 276.9671 14.72269509316914
IRIDIUM 168             
1 43924U 19002C   24339.44655647  .00000130  00000+0  39228-4 0  9997
2 43924  86.3996 227.5317 0002017  82.7111 277.4314 14.34221312308745
IRIDIUM 173             
1 43925U 19002D   24339.22457022  .00000038  00000+0  65652-5 0  9999
2 43925  86.3998 227.5362 0002235  81.9609 278.1841 14.34211604308693
IRIDIUM 169             
1 43926U 19002E   24339.53698151  .00001054  00000+0  33805-3 0  9996
2 43926  86.4225 259.0219 0003385  55.4378 304.7140 14.38610816309764
IRIDIUM 172             
1 43927U 19002F   24339.63684180  .00000716  00000+0  24844-3 0  9992
2 43927  86.3996 227.3700 0002150  86.0551 274.0890 14.34216544308760
IRIDIUM 175             
1 43928U 19002G   24339.57546683  .00000965  00000+0  14914-3 0  9994
2 43928  86.1531 190.9960 0001690  40.2603 319.8738 14.72225545316902
